NORAD_CAT_ID,OBJECT_NAME,OBJECT_TYPE,EPOCH,MEAN_MOTION,ECCENTRICITY,INCLINATION,RA_OF_ASC_NODE,ARG_OF_PERICENTER,MEAN_ANOMALY,BSTAR,MEAN_MOTION_DOT,MEAN_MOTION_DDOT,TLE_LINE0,TLE_LINE1,TLE_LINE2,SEMIMAJOR_AXIS,PERIOD,APOGEE,PERIGEE,DECAYED
52383.0,STARLINK-3811,PAYLOAD,2022-10-12 14:00:01,15.0884421,0.0002326,53.2188,4.125,27.4189,81.4118,-0.0007479,-0.00012173,0.0,0 STARLINK-3811,1 52383U 22045BE  22285.58334491 -.00012173  00000-0 -74790-3 0  9996,2 52383  53.2188   4.1250 0002326  27.4189  81.4118 15.08844210  1306,6917.868,95.437,541.342,538.123,0.0
52383.0,STARLINK-3811,PAYLOAD,2022-10-12 22:00:00,15.08792028,0.0002222,53.2183,2.6277,26.8382,93.5968,0.0089562999999999,0.00145011,0.0,0 STARLINK-3811,1 52383U 22045BE  22285.91667824  .00145011  00000-0  89563-2 0  9991,2 52383  53.2183   2.6277 0002222  26.8382  93.5968 15.08792028  1302,6918.026999999999,95.441,541.429,538.355,0.0
52383.0,STARLINK-3811,PAYLOAD,2022-10-13 06:00:00,15.08784749,0.0002121,53.2186,1.1301,30.5199,101.4817,0.010416,0.00169237,0.0,0 STARLINK-3811,1 52383U 22045BE  22286.25001157  .00169237  00000-0  10416-1 0  9996,2 52383  53.2186   1.1301 0002121  30.5199 101.4817 15.08784749 28349,6918.049,95.441,541.382,538.447,0.0
52383.0,STARLINK-3811,PAYLOAD,2022-10-13 14:00:01,15.09002518,0.0002362,53.2181,359.6364,28.7391,114.8354,-0.014985,-0.0023223,0.0,0 STARLINK-3811,1 52383U 22045BE  22286.58334491 -.00232230  00000-0 -14985-1 0  9993,2 52383  53.2181 359.6364 0002362  28.7391 114.8354 15.09002518  1303,6917.384,95.427,540.883,537.615,0.0
52383.0,STARLINK-3811,PAYLOAD,2022-10-13 20:00:01,15.08837177,0.0002228,53.2173,358.5131,26.579,35.84900000000001,-7.946300000000001e-05,-1.553e-05,0.0,0 STARLINK-3811,1 52383U 22045BE  22286.83335648 -.00001553  00000-0 -79463-4 0  9993,2 52383  53.2173 358.5131 0002228  26.5790  35.8490 15.08837177 28436,6917.889,95.438,541.295,538.2130000000002,0.0
52383.0,STARLINK-3811,PAYLOAD,2022-10-13 22:00:00,15.0883755,0.0002177999999999,53.2175,358.1386,27.1689,128.0942,-8.999e-05,-1.7199999999999998e-05,0.0,0 STARLINK-3811,1 52383U 22045BE  22286.91667824 -.00001720  00000-0 -89990-4 0  9998,2 52383  53.2175 358.1386 0002178  27.1689 128.0942 15.08837550  1303,6917.888000000001,95.438,541.26,538.246,0.0
52383.0,STARLINK-3811,PAYLOAD,2022-10-14 14:00:01,15.08890283,0.0002359,53.2181,355.1472,20.9198,157.4987,-0.0050976,-0.00080624,0.0,0 STARLINK-3811,1 52383U 22045BE  22287.58334491 -.00080624  00000-0 -50976-2 0  9993,2 52383  53.2181 355.1472 0002359  20.9198 157.4987 15.08890283  1307,6917.727,95.434,541.224,537.96,0.0
52383.0,STARLINK-3811,PAYLOAD,2022-10-14 22:00:00,15.08867832,0.0002218999999999,53.2192,353.6488,28.59800000000001,161.4276,-0.0017436,-0.00027953,0.0,0 STARLINK-3811,1 52383U 22045BE  22287.91667824 -.00027953  00000-0 -17436-2 0  9999,2 52383  53.2192 353.6488 0002219  28.5980 161.4276 15.08867832 28597,6917.795,95.436,541.195,538.125,0.0
52383.0,STARLINK-3811,PAYLOAD,2022-10-15 14:00:01,15.08864903,0.0002387,53.2191,350.6576,27.8399,185.4138,-0.00065442,-0.00010696,0.0,0 STARLINK-3811,1 52383U 22045BE  22288.58334491 -.00010696  00000-0 -65442-3 0  9991,2 52383  53.2191 350.6576 0002387  27.8399 185.4138 15.08864903  1302,6917.804,95.436,541.321,538.018,0.0
52383.0,STARLINK-3811,PAYLOAD,2022-10-15 22:00:01,15.08728939,0.0002031,53.218,349.16,31.0503,193.888,0.01022,0.00165711,0.0,0 STARLINK-3811,1 52383U 22045BE  22288.91668981  .00165711  00000-0  10220-1 0  9991,2 52383  53.2180 349.1600 0002031  31.0503 193.8880 15.08728939 28743,6918.22,95.445,541.49,538.68,0.0
52383.0,STARLINK-3811,PAYLOAD,2022-10-16 06:00:00,15.08799269,0.0002112,53.2189,347.6637,27.8144,208.6337,-0.00031686,-5.322e-05,0.0,0 STARLINK-3811,1 52383U 22045BE  22289.25001157 -.00005322  00000-0 -31686-3 0  9999,2 52383  53.2189 347.6637 0002112  27.8144 208.6337 15.08799269 28790,6918.005,95.44,541.331,538.409,0.0
52383.0,STARLINK-3811,PAYLOAD,2022-10-16 14:00:01,15.0877438,0.0002389,53.2183,346.1689,25.6579,222.3385,0.0038071999999999,0.00060718,0.0,0 STARLINK-3811,1 52383U 22045BE  22289.58334491  .00060718  00000-0  38072-2 0  9998,2 52383  53.2183 346.1689 0002389  25.6579 222.3385 15.08774380  1300,6918.081,95.442,541.599,538.293,0.0
52383.0,STARLINK-3811,PAYLOAD,2022-10-16 22:00:00,15.08808152,0.0002189999999999,53.2184,344.6711,27.3912,232.1487,0.0012562,0.00019744,0.0,0 STARLINK-3811,1 52383U 22045BE  22289.91667824  .00019744  00000-0  12562-2 0  9993,2 52383  53.2184 344.6711 0002190  27.3912 232.1487 15.08808152  1307,6917.978,95.44,541.3580000000002,538.328,0.0
52383.0,STARLINK-3811,PAYLOAD,2022-10-17 06:00:00,15.08836216,0.0002201999999999,53.2184,343.1751,30.3549,240.7347,-8.4384e-05,-1.631e-05,0.0,0 STARLINK-3811,1 52383U 22045BE  22290.25001157 -.00001631  00000-0 -84384-4 0  9994,2 52383  53.2184 343.1751 0002202  30.3549 240.7347 15.08836216 28940,6917.892,95.438,541.28,538.234,0.0
52383.0,STARLINK-3811,PAYLOAD,2022-10-17 14:00:01,15.08819183,0.0002463999999999,53.218,341.6802,27.2896,255.4053,0.0040029,0.00063962,0.0,0 STARLINK-3811,1 52383U 22045BE  22290.58334491  .00063962  00000-0  40029-2 0  9999,2 52383  53.2180 341.6802 0002464  27.2896 255.4053 15.08819183  1308,6917.944,95.439,541.514,538.104,0.0
52383.0,STARLINK-3811,PAYLOAD,2022-10-17 22:00:00,15.08856042,0.0002244,53.2183,340.182,28.5627,265.7158,-0.0010744,-0.00017355,0.0,0 STARLINK-3811,1 52383U 22045BE  22290.91667824 -.00017355  00000-0 -10744-2 0  9993,2 52383  53.2183 340.1820 0002244  28.5627 265.7158 15.08856042  1302,6917.831,95.437,541.249,538.144,0.0
52383.0,STARLINK-3811,PAYLOAD,2022-10-18 08:00:01,15.08846421,0.0002335999999999,53.2182,338.3125,28.2179,10.5551,-0.0010257999999999,-0.0001658,0.0,0 STARLINK-3811,1 52383U 22045BE  22291.33334491 -.00016580  00000-0 -10258-2 0  9990,2 52383  53.2182 338.3125 0002336  28.2179  10.5551 15.08846421 29111,6917.861,95.437,541.342,538.11,0.0
52383.0,STARLINK-3811,PAYLOAD,2022-10-18 14:00:01,15.08820149,0.0002475,53.2182,337.1911,26.0392,291.4354,0.0034714,0.00055365,0.0,0 STARLINK-3811,1 52383U 22045BE  22291.58334491  .00055365  00000-0  34714-2 0  9992,2 52383  53.2182 337.1911 0002475  26.0392 291.4354 15.08820149  1309,6917.941,95.439,541.518,538.094,0.0
52383.0,STARLINK-3811,PAYLOAD,2022-10-18 22:00:00,15.08840757,0.0002278,53.2183,335.6930000000001,27.0187,302.0548,-0.00065506,-0.00010699,0.0,0 STARLINK-3811,1 52383U 22045BE  22291.91667824 -.00010699  00000-0 -65506-3 0  9995,2 52383  53.2183 335.6930 0002278  27.0187 302.0548 15.08840757  1309,6917.878000000002,95.438,541.319,538.1669999999998,0.0
52383.0,STARLINK-3811,PAYLOAD,2022-10-19 08:00:01,15.08849096,0.0002426,53.2183,333.8236,27.4613,46.098,-0.0010752,-0.00017364,0.0,0 STARLINK-3811,1 52383U 22045BE  22292.33334491 -.00017364  00000-0 -10752-2 0  9991,2 52383  53.2183 333.8236 0002426  27.4613  46.0980 15.08849096 29266,6917.853,95.437,541.396,538.039,0.0
52383.0,STARLINK-3811,PAYLOAD,2022-10-19 14:00:01,15.08825446,0.0002546999999999,53.2184,332.7021,25.2302,327.032,0.0031654,0.00050431,0.0,0 STARLINK-3811,1 52383U 22045BE  22292.58334491  .00050431  00000-0  31654-2 0  9992,2 52383  53.2184 332.7021 0002547  25.2302 327.0320 15.08825446  1300,6917.925,95.438,541.552,538.028,0.0
52383.0,STARLINK-3811,PAYLOAD,2022-10-19 22:00:00,15.08840733,0.0002339,53.2186,331.204,26.7203,337.1511,-2.463300000000001e-05,-6.8e-06,0.0,0 STARLINK-3811,1 52383U 22045BE  22292.91667824 -.00000680  00000-0 -24633-4 0  9992,2 52383  53.2186 331.2040 0002339  26.7203 337.1511 15.08840733 29357,6917.878000000002,95.438,541.361,538.125,0.0
52383.0,STARLINK-3811,PAYLOAD,2022-10-20 14:00:01,15.08844136,0.0002616,53.2182,328.213,24.1219,2.949,0.0013127,0.00020668,0.0,0 STARLINK-3811,1 52383U 22045BE  22293.58334491  .00020668  00000-0  13127-2 0  9997,2 52383  53.2182 328.2130 0002616  24.1219   2.9490 15.08844136  1305,6917.868,95.437,541.5419999999998,537.923,0.0
52383.0,STARLINK-3811,PAYLOAD,2022-10-20 22:00:00,15.08813406,0.0002353,53.2187,326.7148,25.9123,12.7667,0.0023203,0.00036807,0.0,0 STARLINK-3811,1 52383U 22045BE  22293.91667824  .00036807  00000-0  23203-2 0  9991,2 52383  53.2187 326.7148 0002353  25.9123  12.7667 15.08813406  1304,6917.962,95.439,541.4540000000002,538.1990000000002,0.0
52383.0,STARLINK-3811,PAYLOAD,2022-10-21 06:00:00,15.0885745,0.0002477,53.219,325.2195,26.6332,23.6235,-0.0012696,-0.00020448,0.0,0 STARLINK-3811,1 52383U 22045BE  22294.25001157 -.00020448  00000-0 -12696-2 0  9990,2 52383  53.2190 325.2195 0002477  26.6332  23.6235 15.08857450 29557,6917.8269999999975,95.436,541.406,537.979,0.0
52383.0,STARLINK-3811,PAYLOAD,2022-10-21 14:00:01,15.08845309,0.000265,53.2182,323.724,23.8623,38.0105,0.0019257999999999,0.000305,0.0,0 STARLINK-3811,1 52383U 22045BE  22294.58334491  .00030500  00000-0  19258-2 0  9995,2 52383  53.2182 323.7240 0002650  23.8623  38.0105 15.08845309  1306,6917.864000000001,95.437,541.562,537.896,0.0
52383.0,STARLINK-3811,PAYLOAD,2022-10-21 22:00:00,15.08858756,0.0002431,53.2181,322.2252,24.9584,48.536,-0.004098,-0.00064957,0.0,0 STARLINK-3811,1 52383U 22045BE  22294.91667824 -.00064957  00000-0 -40980-2 0  9992,2 52383  53.2181 322.2252 0002431  24.9584  48.5360 15.08858756  1306,6917.823,95.436,541.37,538.006,0.0
52383.0,STARLINK-3811,PAYLOAD,2022-10-22 08:00:01,15.08854353,0.0002512,53.2186,320.3571,24.1441,153.8317,-0.0032788,-0.00052117,0.0,0 STARLINK-3811,1 52383U 22045BE  22295.33334491 -.00052117  00000-0 -32788-2 0  9992,2 52383  53.2186 320.3571 0002512  24.1441 153.8317 15.08854353 29714,6917.837,95.437,541.439,537.964,0.0
52383.0,STARLINK-3811,PAYLOAD,2022-10-22 14:00:01,15.08812208,0.0002582,53.2182,319.235,21.6103,75.0623,0.002078,0.00032914,0.0,0 STARLINK-3811,1 52383U 22045BE  22295.58334491  .00032914  00000-0  20780-2 0  9999,2 52383  53.2182 319.2350 0002582  21.6103  75.0623 15.08812208  1309,6917.965,95.439,541.617,538.044,0.0
